PROBA-1                 
1 26958U 01049B   24154.46488797  .00003049  00000+0  23498-3 0  9997
2 26958  97.9167 130.7428 0059572 110.8853 249.8763 15.01016359231680
CUTE-1 (CO-55)          
1 27844U 03031E   24153.55410149  .00000487  00000+0  23455-3 0  9996
2 27844  98.6766 160.8013 0009614 182.6119 177.5011 14.23256982 85564
CUBESAT XI-IV (CO-57)   
1 27848U 03031J   24153.97439714  .00000428  00000+0  21055-3 0  9994
2 27848  98.6797 161.4696 0009219 197.8012 162.2844 14.22699832 85421
GENESIS 1               
1 29252U 06029A   24154.22252071  .00015418  00000+0  40995-3 0  9992
2 29252  64.5154 216.5897 0023153 326.5063  33.4605 15.38165386988354
GENESIS 2               
1 31789U 07028A   24153.59506910  .00017073  00000+0  47796-3 0  9998
2 31789  64.4900 264.2553 0023538 226.0698 133.8492 15.36503716935020
APRIZESAT 4             
1 35684U 09041D   24153.55457801  .00001088  00000+0  14439-3 0  9990
2 35684  98.2375 199.9479 0044644 212.0678 147.7816 14.81367752800914
APRIZESAT 3             
1 35686U 09041F   24153.86344914  .00002043  00000+0  20317-3 0  9990
2 35686  98.1150 267.5337 0067865   4.4508 355.7298 14.91189734805133
PROBA-2                 
1 36037U 09059B   24154.48296277  .00000365  00000+0  97266-4 0  9990
2 36037  98.2311 338.1661 0014474  62.7553 297.5116 14.53935981773366
APRIZESAT 5             
1 37792U 11044E   24154.30070188  .00001132  00000+0  16170-3 0  9995
2 37792  98.2448  57.8206 0054269 236.4802 123.1217 14.77811586688775
APRIZESAT 6             
1 37793U 11044F   24153.65934684  .00001040  00000+0  16276-3 0  9998
2 37793  98.3044  36.6723 0044080 307.3167 106.5174 14.74419609687335
PROBA-V                 
1 39159U 13021A   24154.45233597  .00000137  00000+0  78614-4 0  9998
2 39159  98.3062 161.7900 0004886 141.5326 218.6203 14.23263356575160
APRIZESAT 7             
1 39416U 13066A   24154.44657101  .00001675  00000+0  18896-3 0  9996
2 39416  97.6703 114.1631 0039389 154.8410 205.4737 14.87323363570379
APRIZESAT 8             
1 39425U 13066K   24153.83279186  .00001356  00000+0  16570-3 0  9994
2 39425  97.7284 106.8134 0048137 214.6199 145.1880 14.84101732569233
BUGSAT-1 (TITA)         
1 40014U 14033E   24154.16853014  .00005074  00000+0  36899-3 0  9997
2 40014  98.1274 195.0114 0035953 181.1365 178.9783 15.03799519543399
SAUDISAT 4              
1 40016U 14033G   24154.42739706  .00000851  00000+0  12526-3 0  9998
2 40016  97.6653 320.9632 0046294 338.3414  21.5838 14.77139800536040
APRIZESAT 9             
1 40018U 14033J   24154.36928861  .00001046  00000+0  16843-3 0  9998
2 40018  97.8015 300.6157 0070274  74.9922 285.9050 14.71914710534028
APRIZESAT 10            
1 40019U 14033K   24154.35710690  .00001183  00000+0  20045-3 0  9998
2 40019  97.8662 292.3271 0082663 131.4965 229.3374 14.68822590533000
TECHDEMOSAT-1 (TDS-1)   
1 40076U 14037H   24153.79754697  .00007843  00000+0  73976-3 0  9997
2 40076  98.3291  75.3210 0003263 262.8762  97.2086 14.94072622536223
TIANTUO 2               
1 40144U 14053B   24154.48133914  .00026209  00000+0  31982-3 0  9999
2 40144  97.1232 235.5229 0007658 104.1369 256.0740 15.60410690545715
TECHNOSAT               
1 42829U 17042E   24154.47296261  .00003215  00000+0  28714-3 0  9997
2 42829  97.3848 336.3698 0013907 120.0739 240.1864 14.96506769374974
FLYING LAPTOP           
1 42831U 17042G   24154.52484165  .00003070  00000+0  28451-3 0  9995
2 42831  97.3858 336.3220 0014331 122.7175 237.5430 14.95079250374949
HAWK-A                  
1 43765U 18099H   24153.59113351  .00004400  00000+0  33233-3 0  9999
2 43765  97.4968 211.3998 0009502 340.2117  19.8738 15.02859137300300
HAWK-B                  
1 43794U 18099AN  24153.85786832  .00004770  00000+0  35985-3 0  9996
2 43794  97.4968 211.6605 0009353 340.6502  19.4367 15.02859141300338
HAWK-C                  
1 43799U 18099AT  24153.85763958  .00004808  00000+0  36265-3 0  9999
2 43799  97.4969 211.5531 0009291 340.2487  19.8377 15.02862417300335
SALSAT                  
1 46495U 20068K   24154.46031195  .00006021  00000+0  34480-3 0  9999
2 46495  97.8148 113.3847 0014169  12.6964 347.4620 15.12933835202081
HAWK-2C                 
1 47502U 21006CT  24154.13315839  .00006622  00000+0  31481-3 0  9991
2 47502  97.3333 204.5072 0008706 339.9677  20.1215 15.19493426185732
HAWK-2A                 
1 47505U 21006CW  24153.14554610  .00006498  00000+0  30911-3 0  9994
2 47505  97.3390 203.7564 0008002 348.2852  11.8195 15.19482206185583
HAWK-2B                 
1 47508U 21006CZ  24154.13352137  .00006740  00000+0  32031-3 0  9992
2 47508  97.3244 204.3582 0008607 342.6640  17.4300 15.19495109185738
HAWK-3B                 
1 48931U 21059BE  24153.98685379  .00010889  00000+0  39614-3 0  9993
2 48931  97.6278 297.9206 0012935 132.5772 227.6561 15.28349225162715
HAWK-3C                 
1 48948U 21059BX  24153.98660021  .00010798  00000+0  39279-3 0  9994
2 48948  97.6539 301.4442 0013656 136.8673 223.3638 15.28347007162718
HAWK-3A                 
1 48957U 21059CG  24153.92095974  .00010727  00000+0  39020-3 0  9993
2 48957  97.6408 299.6224 0013854 131.1075 229.1363 15.28344247162704
HAWK-4B                 
1 52165U 22033J   24153.21348865  .00016219  00000+0  42542-3 0  9999
2 52165  97.3253 235.9966 0006945  11.9647 348.1762 15.38711714120857
HAWK-4A                 
1 52167U 22033L   24153.21332368  .00016277  00000+0  42698-3 0  9998
2 52167  97.3198 235.4989 0006288  12.9508 347.1898 15.38712554120856
HAWK-4C                 
1 52170U 22033P   24153.21314081  .00016242  00000+0  42594-3 0  9991
2 52170  97.3251 235.9741 0007723 357.4790   2.6415 15.38712088120856
HAWK-5C                 
1 52754U 22057Y   24154.21646590  .00009307  00000+0  39539-3 0  9998
2 52754  97.5761 276.3161 0008010 195.0171 165.0829 15.23256499111931
HAWK-5B                 
1 52756U 22057AA  24154.21630209  .00008902  00000+0  37830-3 0  9992
2 52756  97.5763 274.7640 0008714 190.4616 169.6441 15.23254961111935
HAWK-5A                 
1 52757U 22057AB  24154.21606419  .00009146  00000+0  38852-3 0  9995
2 52757  97.5762 275.5335 0008958 194.3196 165.7788 15.23256612111937
HAWK-6B                 
1 55324U 23011A   24154.53526382  .00004767  00000+0  28835-3 0  9998
2 55324  40.5181 339.3974 0003815  36.1284 323.9778 15.11229373 74687
HAWK-6C                 
1 55326U 23011C   24154.00622679  .00004691  00000+0  28391-3 0  9991
2 55326  40.4868 341.0363 0004563  30.4138 329.6931 15.11219699 74615
HAWK-6A                 
1 55327U 23011D   24154.00611367  .00004712  00000+0  28516-3 0  9997
2 55327  40.5028 341.7580 0004832  22.9628 337.1392 15.11219724 74616
HAWK-7A                 
1 56191U 23054P   24153.58822893  .00006337  00000+0  30945-3 0  9998
2 56191  97.3733  45.7006 0008515 179.6536 180.4706 15.18578623 63353
HAWK-7B                 
1 56193U 23054R   24153.58806591  .00006283  00000+0  30684-3 0  9997
2 56193  97.3471  44.5012 0008671 195.9121 164.1842 15.18574279 63355
HAWK-7C                 
1 56200U 23054Y   24153.58786603  .00006674  00000+0  32576-3 0  9993
2 56200  97.3642  45.2322 0007957 190.8426 169.2639 15.18579899 63357
